O3B MPOWER F1           
1 54755U 22174A   23252.96267250 -.00000032  00000+0  00000+0 0  9997
2 54755   0.0453  15.9756 0004730 167.2042 295.9708  5.00118513 14750
